OBJECT_NAME,OBJECT_ID,EPOCH,MEAN_MOTION,ECCENTRICITY,INCLINATION,RA_OF_ASC_NODE,ARG_OF_PERICENTER,MEAN_ANOMALY,EPHEMERIS_TYPE,CLASSIFICATION_TYPE,NORAD_CAT_ID,ELEMENT_SET_NO,REV_AT_EPOCH,BSTAR,MEAN_MOTION_DOT,MEAN_MOTION_DDOT
CHUANGXIN 1-02 (CX-1-02),2008-056B,2026-06-28T23:33:00.991008,14.30155034,.0015453,98.6132,206.1302,104.2151,256.0749,0,U,33434,999,92030,-.3890693E-5,-.54E-6,0
STARS (KUKAI),2009-002G,2026-06-28T17:24:05.868288,14.95821605,.00097842,98.1545,127.5045,126.3011,233.9114,0,U,33498,999,94020,.33003842E-3,.3625E-4,0
KKS-1 (KISEKI),2009-002H,2026-06-28T20:39:22.905792,14.83152106,.00064234,98.1186,102.4879,249.5116,110.5407,0,U,33499,999,93792,.15977211E-3,.1248E-4,0
UK-DMC 2,2009-041C,2026-06-28T22:52:53.672736,14.76074372,.0001212,97.8844,314.6327,94.9984,265.1364,0,U,35683,999,90830,.16698381E-3,.1102E-4,0
OCEANSAT-2,2009-051A,2026-06-28T22:09:27.796896,13.99660590,.00161641,98.2319,165.6035,201.0211,159.0293,0,U,35931,999,88097,-.13271767E-3,-.232E-5,0
SWISSCUBE,2009-051B,2026-06-28T17:32:49.692480,14.62502262,.00067983,98.4027,87.8203,165.5410,194.5986,0,U,35932,999,89084,.19405545E-3,.934E-5,0
BEESAT-1,2009-051C,2026-06-28T16:16:30.433728,14.61737811,.00049895,98.3955,87.3776,176.9996,183.1235,0,U,35933,999,89086,.16738742E-3,.785E-5,0
ITUPSAT1,2009-051E,2026-06-28T13:00:34.167168,14.60456331,.0006875,98.4040,86.4193,194.0038,166.0972,0,U,35935,999,89039,.15671078E-3,.711E-5,0
DMSP 5D-3 F18 (USA 210),2009-057A,2026-06-28T22:48:53.747712,14.14903170,.00102849,98.9042,160.6944,212.8775,147.1759,0,U,35951,999,86125,.13802751E-3,.222E-5,0
PROBA-2,2009-059B,2026-06-28T22:22:31.289376,14.54867258,.00120758,98.2451,3.1223,241.8359,118.1618,0,U,36037,999,88323,.53430334E-4,.184E-5,0
YAOGAN-7,2009-069A,2026-06-28T15:58:05.856384,14.78020741,.0024746,98.0059,65.4609,5.7212,354.4277,0,U,36110,999,89132,.70585707E-4,.459E-5,0
XIWANG-1 (HOPE-1),2009-072B,2026-06-28T22:44:45.333024,13.16437947,.00071207,100.4024,133.5924,202.6685,157.4115,0,U,36122,999,79455,-.76244725E-3,-.336E-5,0
COSMOS 2463,2010-017A,2026-06-28T22:58:05.885184,13.71666328,.00376216,82.9596,241.0587,97.3415,76.1157,0,U,36519,999,80954,.44514488E-4,.56E-6,0
CARTOSAT-2B,2010-035A,2026-06-28T21:52:06.244032,14.78676601,.00121647,97.9954,230.3862,146.6328,213.5652,0,U,36795,999,86158,.13135168E-3,.911E-5,0
TISAT 1,2010-035E,2026-06-28T19:25:23.151072,15.32141146,.00029594,98.0708,127.3929,148.5212,211.6205,0,U,36799,999,86948,.65207543E-3,.20182E-3,0
YAOGAN-10,2010-038A,2026-06-28T23:59:00.502368,14.85381507,.00016631,97.8973,203.3090,85.5334,303.7890,0,U,36834,999,85896,.10135715E-3,.818E-5,0
SHIJIAN-6 04B (SJ-6 04B),2010-051B,2026-06-28T23:15:24.059808,14.99351279,.00069103,97.8709,185.5020,272.2767,87.7665,0,U,37180,999,85744,.15085457E-3,.1783E-4,0
FENGYUN 3B,2010-059A,2026-06-28T23:36:16.172928,14.14844587,.00225576,98.9620,226.0477,150.8489,327.1675,0,U,37214,999,80909,.12543184E-3,.198E-5,0
COSMO-SKYMED 4,2010-060A,2026-06-28T23:42:47.852640,14.82153920,.0001442,97.8883,3.4169,85.3006,274.8372,0,U,37216,999,84631,.55864895E-4,.393E-5,0
O/OREOS (USA 219),2010-062C,2026-06-28T17:09:15.335712,14.93790940,.0013001,71.9712,54.2272,38.4186,321.7908,0,U,37224,999,11836,.19961488E-3,.2058E-4,0
RESOURCESAT-2,2011-015A,2026-06-28T21:55:11.913312,14.21602520,.00106471,98.7640,247.2740,218.6278,141.4139,0,U,37387,999,78784,.61964542E-4,.92E-6,0
YOUTHSAT,2011-015B,2026-06-28T22:45:33.197760,14.25634811,.00135197,98.3688,153.4723,311.2012,114.8304,0,U,37388,999,78931,.87055784E-4,.165E-5,0
APRIZESAT 6,2011-044F,2026-06-28T17:32:06.080352,14.76932956,.00441985,98.2355,90.4656,50.2070,4.2822,0,U,37793,999,79885,.11560373E-3,.77E-5,0
JUGNU,2011-058B,2026-06-28T12:48:23.131584,14.13779476,.00184121,19.9595,239.4959,201.2516,297.0567,0,U,37839,999,76063,.70931175E-4,.403E-5,0
SRMSAT,2011-058D,2026-06-28T19:22:22.556928,14.11577875,.00117497,19.9735,349.1375,332.2433,55.7265,0,U,37841,999,75946,.58225428E-4,.372E-5,0
