CHUANGXIN 1-02 (CX-1-02)
1 33434U 08056B   26179.98126147 -.00000054  00000+0 -38907-5 0  9991
2 33434  98.6132 206.1302 0015453 104.2151 256.0749 14.30155034920307
STARS (KUKAI)           
1 33498U 09002G   26179.72506792  .00003625  00000+0  33004-3 0  9999
2 33498  98.1545 127.5045 0009784 126.3011 233.9114 14.95821605940206
KKS-1 (KISEKI)          
1 33499U 09002H   26179.86068178  .00001248  00000+0  15977-3 0  9994
2 33499  98.1186 102.4879 0006423 249.5116 110.5407 14.83152106937926
UK-DMC 2                
1 35683U 09041C   26179.95339899  .00001102  00000+0  16698-3 0  9995
2 35683  97.8844 314.6327 0001212  94.9984 265.1364 14.76074372908300
OCEANSAT-2              
1 35931U 09051A   26179.92323839 -.00000232  00000+0 -13272-3 0  9996
2 35931  98.2319 165.6035 0016164 201.0211 159.0293 13.99660590880975
SWISSCUBE               
1 35932U 09051B   26179.73113070  .00000934  00000+0  19406-3 0  9992
2 35932  98.4027  87.8203 0006798 165.5410 194.5986 14.62502262890845
BEESAT-1                
1 35933U 09051C   26179.67813002  .00000785  00000+0  16739-3 0  9998
2 35933  98.3955  87.3776 0004989 176.9996 183.1235 14.61737811890862
ITUPSAT1                
1 35935U 09051E   26179.54206212  .00000711  00000+0  15671-3 0  9998
2 35935  98.4040  86.4193 0006875 194.0038 166.0972 14.60456331890397
DMSP 5D-3 F18 (USA 210) 
1 35951U 09057A   26179.95062208  .00000222  00000+0  13803-3 0  9994
2 35951  98.9042 160.6944 0010284 212.8775 147.1759 14.14903170861250
PROBA-2                 
1 36037U 09059B   26179.93230659  .00000184  00000+0  53430-4 0  9995
2 36037  98.2451   3.1223 0012075 241.8359 118.1618 14.54867258883238
YAOGAN-7                
1 36110U 09069A   26179.66534556  .00000459  00000+0  70586-4 0  9997
2 36110  98.0059  65.4609 0024746   5.7212 354.4277 14.78020741891323
XIWANG-1 (HOPE-1)       
1 36122U 09072B   26179.94774691 -.00000336  00000+0 -76245-3 0  9994
2 36122 100.4024 133.5924 0007120 202.6685 157.4115 13.16437947794552
COSMOS 2463             
1 36519U 10017A   26179.95701256  .00000056  00000+0  44514-4 0  9995
2 36519  82.9596 241.0587 0037621  97.3415  76.1157 13.71666328809546
CARTOSAT-2B             
1 36795U 10035A   26179.91118338  .00000911  00000+0  13135-3 0  9994
2 36795  97.9954 230.3862 0012164 146.6328 213.5652 14.78676601861581
TISAT 1                 
1 36799U 10035E   26179.80929573  .00020182  00000+0  65208-3 0  9997
2 36799  98.0708 127.3929 0002959 148.5212 211.6205 15.32141146869489
YAOGAN-10               
1 36834U 10038A   26179.99931137  .00000818  00000+0  10136-3 0  9993
2 36834  97.8973 203.3090 0001663  85.5334 303.7890 14.85381507858968
SHIJIAN-6 04B (SJ-6 04B)
1 37180U 10051B   26179.96902847  .00001783  00000+0  15085-3 0  9996
2 37180  97.8709 185.5020 0006910 272.2767  87.7665 14.99351279857448
FENGYUN 3B              
1 37214U 10059A   26179.98352052  .00000198  00000+0  12543-3 0  9996
2 37214  98.9620 226.0477 0022557 150.8489 327.1675 14.14844587809090
COSMO-SKYMED 4          
1 37216U 10060A   26179.98805385  .00000393  00000+0  55865-4 0  9994
2 37216  97.8883   3.4169 0001442  85.3006 274.8372 14.82153920846310
O/OREOS (USA 219)       
1 37224U 10062C   26179.71476083  .00002058  00000+0  19961-3 0  9991
2 37224  71.9712  54.2272 0013001  38.4186 321.7908 14.93790940118369
RESOURCESAT-2           
1 37387U 11015A   26179.91333233  .00000092  00000+0  61965-4 0  9999
2 37387  98.7640 247.2740 0010647 218.6278 141.4139 14.21602520787842
YOUTHSAT                
1 37388U 11015B   26179.94830090  .00000165  00000+0  87056-4 0  9996
2 37388  98.3688 153.4723 0013519 311.2012 114.8304 14.25634811789311
APRIZESAT 6             
1 37793U 11044F   26179.73062593  .00000770  00000+0  11560-3 0  9998
2 37793  98.2355  90.4656 0044198  50.2070   4.2822 14.76932956798850
JUGNU                   
1 37839U 11058B   26179.53360106  .00000403  00000+0  70931-4 0  9994
2 37839  19.9595 239.4959 0018412 201.2516 297.0567 14.13779476760631
SRMSAT                  
1 37841U 11058D   26179.80720552  .00000372  00000+0  58225-4 0  9999
2 37841  19.9735 349.1375 0011749 332.2433  55.7265 14.11577875759460
